CCSDS_OMM_VERS = 2.0
CREATION_DATE  = 
ORIGINATOR     = 

OBJECT_NAME    = STARLINK-36802
OBJECT_ID      = 2026-038AA
CENTER_NAME    = EARTH
REF_FRAME      = TEME
TIME_SYSTEM    = UTC
MEAN_ELEMENT_THEORY = SGP/SGP4

EPOCH          = 2026-03-20T22:46:08.446368
MEAN_MOTION    = 15.75527506
ECCENTRICITY   = .00006891
INCLINATION    = 97.2883
RA_OF_ASC_NODE = 90.8687
ARG_OF_PERICENTER = 133.2307
MEAN_ANOMALY   = 226.9016

EPHEMERIS_TYPE = 0
CLASSIFICATION_TYPE = U
NORAD_CAT_ID   = 67985
ELEMENT_SET_NO = 999
REV_AT_EPOCH   = 496
BSTAR          = .26067812E-2
MEAN_MOTION_DOT = .414182E-2
MEAN_MOTION_DDOT = 0

CCSDS_OMM_VERS = 2.0
CREATION_DATE  = 
ORIGINATOR     = 

OBJECT_NAME    = STARLINK-36535
OBJECT_ID      = 2026-039A
CENTER_NAME    = EARTH
REF_FRAME      = TEME
TIME_SYSTEM    = UTC
MEAN_ELEMENT_THEORY = SGP/SGP4

EPOCH          = 2026-03-20T20:00:01.999872
MEAN_MOTION    = 15.55426912
ECCENTRICITY   = .00012489
INCLINATION    = 42.9993
RA_OF_ASC_NODE = 347.4034
ARG_OF_PERICENTER = 242.7483
MEAN_ANOMALY   = 41.9539

EPHEMERIS_TYPE = 0
CLASSIFICATION_TYPE = U
NORAD_CAT_ID   = 67986
ELEMENT_SET_NO = 999
REV_AT_EPOCH   = 466
BSTAR          = -.30694672E-1
MEAN_MOTION_DOT = -.1894913E-1
MEAN_MOTION_DDOT = 0

CCSDS_OMM_VERS = 2.0
CREATION_DATE  = 
ORIGINATOR     = 

OBJECT_NAME    = STARLINK-36744
OBJECT_ID      = 2026-039B
CENTER_NAME    = EARTH
REF_FRAME      = TEME
TIME_SYSTEM    = UTC
MEAN_ELEMENT_THEORY = SGP/SGP4

EPOCH          = 2026-03-20T20:00:01.999872
MEAN_MOTION    = 15.56890846
ECCENTRICITY   = .00013695
INCLINATION    = 42.9988
RA_OF_ASC_NODE = 347.3111
ARG_OF_PERICENTER = 247.5784
MEAN_ANOMALY   = 74.0753

EPHEMERIS_TYPE = 0
CLASSIFICATION_TYPE = U
NORAD_CAT_ID   = 67987
ELEMENT_SET_NO = 999
REV_AT_EPOCH   = 466
BSTAR          = -.28973948E-1
MEAN_MOTION_DOT = -.1890428E-1
MEAN_MOTION_DDOT = 0

CCSDS_OMM_VERS = 2.0
CREATION_DATE  = 
ORIGINATOR     = 

OBJECT_NAME    = STARLINK-36734
OBJECT_ID      = 2026-039C
CENTER_NAME    = EARTH
REF_FRAME      = TEME
TIME_SYSTEM    = UTC
MEAN_ELEMENT_THEORY = SGP/SGP4

EPOCH          = 2026-03-20T20:00:01.999872
MEAN_MOTION    = 15.50518951
ECCENTRICITY   = .00017316
INCLINATION    = 42.9998
RA_OF_ASC_NODE = 348.4491
ARG_OF_PERICENTER = 259.5889
MEAN_ANOMALY   = 321.6259

EPHEMERIS_TYPE = 0
CLASSIFICATION_TYPE = U
NORAD_CAT_ID   = 67988
ELEMENT_SET_NO = 999
REV_AT_EPOCH   = 466
BSTAR          = .96833376E-3
MEAN_MOTION_DOT = .56757E-3
MEAN_MOTION_DDOT = 0

CCSDS_OMM_VERS = 2.0
CREATION_DATE  = 
ORIGINATOR     = 

OBJECT_NAME    = STARLINK-36957
OBJECT_ID      = 2026-039D
CENTER_NAME    = EARTH
REF_FRAME      = TEME
TIME_SYSTEM    = UTC
MEAN_ELEMENT_THEORY = SGP/SGP4

EPOCH          = 2026-03-20T20:00:01.999872
MEAN_MOTION    = 15.55751647
ECCENTRICITY   = .00013161
INCLINATION    = 42.9993
RA_OF_ASC_NODE = 347.3510
ARG_OF_PERICENTER = 248.8157
MEAN_ANOMALY   = 56.1711

EPHEMERIS_TYPE = 0
CLASSIFICATION_TYPE = U
NORAD_CAT_ID   = 67989
ELEMENT_SET_NO = 999
REV_AT_EPOCH   = 466
BSTAR          = -.30213339E-1
MEAN_MOTION_DOT = -.1888835E-1
MEAN_MOTION_DDOT = 0

CCSDS_OMM_VERS = 2.0
CREATION_DATE  = 
ORIGINATOR     = 

OBJECT_NAME    = STARLINK-36951
OBJECT_ID      = 2026-039E
CENTER_NAME    = EARTH
REF_FRAME      = TEME
TIME_SYSTEM    = UTC
MEAN_ELEMENT_THEORY = SGP/SGP4

EPOCH          = 2026-03-20T20:00:01.999872
MEAN_MOTION    = 15.51612274
ECCENTRICITY   = .0001233
INCLINATION    = 42.9997
RA_OF_ASC_NODE = 347.5816
ARG_OF_PERICENTER = 262.8732
MEAN_ANOMALY   = 308.9547

EPHEMERIS_TYPE = 0
CLASSIFICATION_TYPE = U
NORAD_CAT_ID   = 67990
ELEMENT_SET_NO = 999
REV_AT_EPOCH   = 466
BSTAR          = -.26452637E-1
MEAN_MOTION_DOT = -.1439527E-1
MEAN_MOTION_DDOT = 0

CCSDS_OMM_VERS = 2.0
CREATION_DATE  = 
ORIGINATOR     = 

OBJECT_NAME    = STARLINK-36941
OBJECT_ID      = 2026-039F
CENTER_NAME    = EARTH
REF_FRAME      = TEME
TIME_SYSTEM    = UTC
MEAN_ELEMENT_THEORY = SGP/SGP4

EPOCH          = 2026-03-20T20:00:01.999872
MEAN_MOTION    = 15.50587505
ECCENTRICITY   = .00014193
INCLINATION    = 42.9999
RA_OF_ASC_NODE = 348.4382
ARG_OF_PERICENTER = 260.9954
MEAN_ANOMALY   = 323.6126

EPHEMERIS_TYPE = 0
CLASSIFICATION_TYPE = U
NORAD_CAT_ID   = 67991
ELEMENT_SET_NO = 999
REV_AT_EPOCH   = 466
BSTAR          = -.91390005E-3
MEAN_MOTION_DOT = -.53606E-3
MEAN_MOTION_DDOT = 0

CCSDS_OMM_VERS = 2.0
CREATION_DATE  = 
ORIGINATOR     = 

OBJECT_NAME    = STARLINK-36950
OBJECT_ID      = 2026-039G
CENTER_NAME    = EARTH
REF_FRAME      = TEME
TIME_SYSTEM    = UTC
MEAN_ELEMENT_THEORY = SGP/SGP4

EPOCH          = 2026-03-20T20:00:01.999872
MEAN_MOTION    = 15.50507671
ECCENTRICITY   = .00016102
INCLINATION    = 42.9996
RA_OF_ASC_NODE = 348.0608
ARG_OF_PERICENTER = 250.1048
MEAN_ANOMALY   = 127.2722

EPHEMERIS_TYPE = 0
CLASSIFICATION_TYPE = U
NORAD_CAT_ID   = 67992
ELEMENT_SET_NO = 999
REV_AT_EPOCH   = 466
BSTAR          = .68962218E-3
MEAN_MOTION_DOT = .40221E-3
MEAN_MOTION_DDOT = 0

CCSDS_OMM_VERS = 2.0
CREATION_DATE  = 
ORIGINATOR     = 

OBJECT_NAME    = STARLINK-36975
OBJECT_ID      = 2026-039H
CENTER_NAME    = EARTH
REF_FRAME      = TEME
TIME_SYSTEM    = UTC
MEAN_ELEMENT_THEORY = SGP/SGP4

EPOCH          = 2026-03-20T20:00:01.999872
MEAN_MOTION    = 15.50599146
ECCENTRICITY   = .00015909
INCLINATION    = 42.9996
RA_OF_ASC_NODE = 347.9630
ARG_OF_PERICENTER = 242.6670
MEAN_ANOMALY   = 173.9561

EPHEMERIS_TYPE = 0
CLASSIFICATION_TYPE = U
NORAD_CAT_ID   = 67993
ELEMENT_SET_NO = 999
REV_AT_EPOCH   = 466
BSTAR          = -.13613285E-2
MEAN_MOTION_DOT = -.79457E-3
MEAN_MOTION_DDOT = 0

CCSDS_OMM_VERS = 2.0
CREATION_DATE  = 
ORIGINATOR     = 

OBJECT_NAME    = STARLINK-36993
OBJECT_ID      = 2026-039J
CENTER_NAME    = EARTH
REF_FRAME      = TEME
TIME_SYSTEM    = UTC
MEAN_ELEMENT_THEORY = SGP/SGP4

EPOCH          = 2026-03-20T20:00:01.999872
MEAN_MOTION    = 15.55961700
ECCENTRICITY   = .00016087
INCLINATION    = 42.9995
RA_OF_ASC_NODE = 347.2858
ARG_OF_PERICENTER = 253.1256
MEAN_ANOMALY   = 77.7742

EPHEMERIS_TYPE = 0
CLASSIFICATION_TYPE = U
NORAD_CAT_ID   = 67994
ELEMENT_SET_NO = 999
REV_AT_EPOCH   = 466
BSTAR          = -.30275737E-1
MEAN_MOTION_DOT = -.1905634E-1
MEAN_MOTION_DDOT = 0

CCSDS_OMM_VERS = 2.0
CREATION_DATE  = 
ORIGINATOR     = 

OBJECT_NAME    = STARLINK-36968
OBJECT_ID      = 2026-039K
CENTER_NAME    = EARTH
REF_FRAME      = TEME
TIME_SYSTEM    = UTC
MEAN_ELEMENT_THEORY = SGP/SGP4

EPOCH          = 2026-03-20T20:00:01.999872
MEAN_MOTION    = 15.50598450
ECCENTRICITY   = .00014565
INCLINATION    = 42.9996
RA_OF_ASC_NODE = 348.1634
ARG_OF_PERICENTER = 261.3058
MEAN_ANOMALY   = 74.1919

EPHEMERIS_TYPE = 0
CLASSIFICATION_TYPE = U
NORAD_CAT_ID   = 67995
ELEMENT_SET_NO = 999
REV_AT_EPOCH   = 466
BSTAR          = -.12968713E-2
MEAN_MOTION_DOT = -.75743E-3
MEAN_MOTION_DDOT = 0

CCSDS_OMM_VERS = 2.0
CREATION_DATE  = 
ORIGINATOR     = 

OBJECT_NAME    = STARLINK-36979
OBJECT_ID      = 2026-039L
CENTER_NAME    = EARTH
REF_FRAME      = TEME
TIME_SYSTEM    = UTC
MEAN_ELEMENT_THEORY = SGP/SGP4

EPOCH          = 2026-03-20T20:00:01.999872
MEAN_MOTION    = 15.57543032
ECCENTRICITY   = .00016104
INCLINATION    = 42.9996
RA_OF_ASC_NODE = 347.1894
ARG_OF_PERICENTER = 256.1523
MEAN_ANOMALY   = 113.4875

EPHEMERIS_TYPE = 0
CLASSIFICATION_TYPE = U
NORAD_CAT_ID   = 67996
ELEMENT_SET_NO = 999
REV_AT_EPOCH   = 466
BSTAR          = -.284287E-1
MEAN_MOTION_DOT = -.1900102E-1
MEAN_MOTION_DDOT = 0

CCSDS_OMM_VERS = 2.0
CREATION_DATE  = 
ORIGINATOR     = 

OBJECT_NAME    = STARLINK-36994
OBJECT_ID      = 2026-039M
CENTER_NAME    = EARTH
REF_FRAME      = TEME
TIME_SYSTEM    = UTC
MEAN_ELEMENT_THEORY = SGP/SGP4

EPOCH          = 2026-03-20T20:00:01.999872
MEAN_MOTION    = 15.51379102
ECCENTRICITY   = .00013802
INCLINATION    = 42.9997
RA_OF_ASC_NODE = 347.5015
ARG_OF_PERICENTER = 252.2231
MEAN_ANOMALY   = 350.5123

EPHEMERIS_TYPE = 0
CLASSIFICATION_TYPE = U
NORAD_CAT_ID   = 67997
ELEMENT_SET_NO = 999
REV_AT_EPOCH   = 466
BSTAR          = -.21184888E-1
MEAN_MOTION_DOT = -.1168423E-1
MEAN_MOTION_DDOT = 0

CCSDS_OMM_VERS = 2.0
CREATION_DATE  = 
ORIGINATOR     = 

OBJECT_NAME    = STARLINK-36988
OBJECT_ID      = 2026-039N
CENTER_NAME    = EARTH
REF_FRAME      = TEME
TIME_SYSTEM    = UTC
MEAN_ELEMENT_THEORY = SGP/SGP4

EPOCH          = 2026-03-20T20:00:01.999872
MEAN_MOTION    = 15.52833132
ECCENTRICITY   = .00013906
INCLINATION    = 42.9996
RA_OF_ASC_NODE = 347.4481
ARG_OF_PERICENTER = 243.1061
MEAN_ANOMALY   = 21.8892

EPHEMERIS_TYPE = 0
CLASSIFICATION_TYPE = U
NORAD_CAT_ID   = 67998
ELEMENT_SET_NO = 999
REV_AT_EPOCH   = 466
BSTAR          = -.3830124E-1
MEAN_MOTION_DOT = -.2157769E-1
MEAN_MOTION_DDOT = 0

CCSDS_OMM_VERS = 2.0
CREATION_DATE  = 
ORIGINATOR     = 

OBJECT_NAME    = STARLINK-36926
OBJECT_ID      = 2026-039P
CENTER_NAME    = EARTH
REF_FRAME      = TEME
TIME_SYSTEM    = UTC
MEAN_ELEMENT_THEORY = SGP/SGP4

EPOCH          = 2026-03-20T20:00:01.999872
MEAN_MOTION    = 15.51711532
ECCENTRICITY   = .00005668
INCLINATION    = 42.9995
RA_OF_ASC_NODE = 347.4796
ARG_OF_PERICENTER = 283.8946
MEAN_ANOMALY   = 327.9778

EPHEMERIS_TYPE = 0
CLASSIFICATION_TYPE = U
NORAD_CAT_ID   = 67999
ELEMENT_SET_NO = 999
REV_AT_EPOCH   = 466
BSTAR          = -.28710931E-1
MEAN_MOTION_DOT = -.1580082E-1
MEAN_MOTION_DDOT = 0

